<?xml version='1.0' encoding='UTF-8' standalone='yes'?>
<q:quakeml xmlns="http://quakeml.org/xmlns/bed/1.2" xmlns:q="http://quakeml.org/xmlns/quakeml" xmlns:mars="http://quakeml.org/xmlns/bed/1.2/mars" xmlns:mq="http://quakeml.org/xmlns/marsquake/1.0" xmlns:sst="http://quakeml.org/xmlns/singlestation/1.0">
  <eventParameters publicID="smi:insight.mqs/EventParameters">
    <event publicID="smi:insight.mqs/mqs2022isne">
      <description>
        <text>Aeolis Northeast</text>
        <type>region name</type>
      </description>
      <description>
        <text>S1222a</text>
        <type>earthquake name</type>
      </description>
      <typeCertainty>suspected</typeCertainty>
      <creationInfo>
        <agencyID>mqs</agencyID>
        <author>scevent@sc3mars-op</author>
        <creationTime>2022-05-05T14:21:10.143728Z</creationTime>
      </creationInfo>
      <origin publicID="smi:insight.mqs/Origin/20220602131402.297449.59117">
        <arrival publicID="smi:insight.mqs/Pick/20220602125848.754251.55834_Origin/20220602131402.297449.59117">
          <azimuth>109</azimuth>
          <distance>37.01401401</distance>
          <pickID>smi:insight.mqs/Pick/20220602125848.754251.55834</pickID>
          <phase>start</phase>
          <timeWeight>1</timeWeight>
        </arrival>
        <arrival publicID="smi:insight.mqs/Pick/20220602125848.754035.55833_Origin/20220602131402.297449.59117">
          <azimuth>109</azimuth>
          <distance>37.01401401</distance>
          <pickID>smi:insight.mqs/Pick/20220602125848.754035.55833</pickID>
          <phase>P</phase>
          <timeWeight>1</timeWeight>
        </arrival>
        <arrival publicID="smi:insight.mqs/Pick/20220510095952.478725.52784_Origin/20220602131402.297449.59117">
          <azimuth>109</azimuth>
          <distance>37.01401401</distance>
          <pickID>smi:insight.mqs/Pick/20220510095952.478725.52784</pickID>
          <phase>end</phase>
          <timeWeight>1</timeWeight>
        </arrival>
        <arrival publicID="smi:insight.mqs/Pick/20220510095439.297781.46392_Origin/20220602131402.297449.59117">
          <azimuth>109</azimuth>
          <distance>37.01401401</distance>
          <pickID>smi:insight.mqs/Pick/20220510095439.297781.46392</pickID>
          <phase>G1_1</phase>
          <timeWeight>1</timeWeight>
        </arrival>
        <arrival publicID="smi:insight.mqs/Pick/20220510095439.297712.46391_Origin/20220602131402.297449.59117">
          <azimuth>109</azimuth>
          <distance>37.01401401</distance>
          <pickID>smi:insight.mqs/Pick/20220510095439.297712.46391</pickID>
          <phase>G1_1</phase>
          <timeWeight>1</timeWeight>
        </arrival>
        <arrival publicID="smi:insight.mqs/Pick/20220510095439.297639.46390_Origin/20220602131402.297449.59117">
          <azimuth>109</azimuth>
          <distance>37.01401401</distance>
          <pickID>smi:insight.mqs/Pick/20220510095439.297639.46390</pickID>
          <phase>G1_1</phase>
          <timeWeight>1</timeWeight>
        </arrival>
        <arrival publicID="smi:insight.mqs/Pick/20220510095439.297549.46389_Origin/20220602131402.297449.59117">
          <azimuth>109</azimuth>
          <distance>37.01401401</distance>
          <pickID>smi:insight.mqs/Pick/20220510095439.297549.46389</pickID>
          <phase>G1_1</phase>
          <timeWeight>1</timeWeight>
        </arrival>
        <arrival publicID="smi:insight.mqs/Pick/20220510095439.297852.46393_Origin/20220602131402.297449.59117">
          <azimuth>109</azimuth>
          <distance>37.01401401</distance>
          <pickID>smi:insight.mqs/Pick/20220510095439.297852.46393</pickID>
          <phase>G1_1</phase>
          <timeWeight>1</timeWeight>
        </arrival>
        <arrival publicID="smi:insight.mqs/Pick/20220510095439.297291.46388_Origin/20220602131402.297449.59117">
          <azimuth>109</azimuth>
          <distance>37.01401401</distance>
          <pickID>smi:insight.mqs/Pick/20220510095439.297291.46388</pickID>
          <phase>G1_1</phase>
          <timeWeight>1</timeWeight>
        </arrival>
        <arrival publicID="smi:insight.mqs/Pick/20220505141904.825072.52512_Origin/20220602131402.297449.59117">
          <azimuth>109</azimuth>
          <distance>37.01401401</distance>
          <pickID>smi:insight.mqs/Pick/20220505141904.825072.52512</pickID>
          <phase>Peak_M2.4</phase>
          <timeWeight>1</timeWeight>
        </arrival>
        <arrival publicID="smi:insight.mqs/Pick/20220505141904.824649.52509_Origin/20220602131402.297449.59117">
          <azimuth>109</azimuth>
          <distance>37.01401401</distance>
          <pickID>smi:insight.mqs/Pick/20220505141904.824649.52509</pickID>
          <phase>S_spectral_end</phase>
          <timeWeight>1</timeWeight>
        </arrival>
        <arrival publicID="smi:insight.mqs/Pick/20220505141904.824506.52508_Origin/20220602131402.297449.59117">
          <azimuth>109</azimuth>
          <distance>37.01401401</distance>
          <pickID>smi:insight.mqs/Pick/20220505141904.824506.52508</pickID>
          <phase>S_spectral_start</phase>
          <timeWeight>1</timeWeight>
        </arrival>
        <arrival publicID="smi:insight.mqs/Pick/20220506080827.463157.68419_Origin/20220602131402.297449.59117">
          <azimuth>109</azimuth>
          <distance>37.01401401</distance>
          <pickID>smi:insight.mqs/Pick/20220506080827.463157.68419</pickID>
          <phase>noise_start</phase>
          <timeWeight>1</timeWeight>
        </arrival>
        <arrival publicID="smi:insight.mqs/Pick/20220506080827.463578.68420_Origin/20220602131402.297449.59117">
          <azimuth>109</azimuth>
          <distance>37.01401401</distance>
          <pickID>smi:insight.mqs/Pick/20220506080827.463578.68420</pickID>
          <phase>noise_end</phase>
          <timeWeight>1</timeWeight>
        </arrival>
        <arrival publicID="smi:insight.mqs/Pick/20220506081328.149789.68425_Origin/20220602131402.297449.59117">
          <azimuth>109</azimuth>
          <distance>37.01401401</distance>
          <pickID>smi:insight.mqs/Pick/20220506081328.149789.68425</pickID>
          <phase>y1</phase>
          <timeWeight>1</timeWeight>
        </arrival>
        <arrival publicID="smi:insight.mqs/Pick/20220506081852.162341.68428_Origin/20220602131402.297449.59117">
          <azimuth>109</azimuth>
          <distance>37.01401401</distance>
          <pickID>smi:insight.mqs/Pick/20220506081852.162341.68428</pickID>
          <phase>P_spectral_end</phase>
          <timeWeight>1</timeWeight>
        </arrival>
        <arrival publicID="smi:insight.mqs/Pick/20220506081911.178074.68431_Origin/20220602131402.297449.59117">
          <azimuth>109</azimuth>
          <distance>37.01401401</distance>
          <pickID>smi:insight.mqs/Pick/20220506081911.178074.68431</pickID>
          <phase>P_spectral_start</phase>
          <timeWeight>1</timeWeight>
        </arrival>
        <arrival publicID="smi:insight.mqs/Pick/20220506083016.430387.68433_Origin/20220602131402.297449.59117">
          <azimuth>109</azimuth>
          <distance>37.01401401</distance>
          <pickID>smi:insight.mqs/Pick/20220506083016.430387.68433</pickID>
          <phase>S</phase>
          <timeWeight>1</timeWeight>
        </arrival>
        <arrival publicID="smi:insight.mqs/Pick/20220506083016.43079.68434_Origin/20220602131402.297449.59117">
          <azimuth>109</azimuth>
          <distance>37.01401401</distance>
          <pickID>smi:insight.mqs/Pick/20220506083016.43079.68434</pickID>
          <phase>y2</phase>
          <timeWeight>1</timeWeight>
        </arrival>
        <arrival publicID="smi:insight.mqs/Pick/20220506083016.43101.68435_Origin/20220602131402.297449.59117">
          <azimuth>109</azimuth>
          <distance>37.01401401</distance>
          <pickID>smi:insight.mqs/Pick/20220506083016.43101.68435</pickID>
          <phase>Peak_MbP</phase>
          <timeWeight>1</timeWeight>
        </arrival>
        <arrival publicID="smi:insight.mqs/Pick/20220506083016.431237.68436_Origin/20220602131402.297449.59117">
          <azimuth>109</azimuth>
          <distance>37.01401401</distance>
          <pickID>smi:insight.mqs/Pick/20220506083016.431237.68436</pickID>
          <phase>Peak_MbS</phase>
          <timeWeight>1</timeWeight>
        </arrival>
        <arrival publicID="smi:insight.mqs/Pick/20220512094820.022032.43277_Origin/20220602131402.297449.59117">
          <azimuth>109</azimuth>
          <distance>37.01401401</distance>
          <pickID>smi:insight.mqs/Pick/20220512094820.022032.43277</pickID>
          <phase>R1</phase>
          <timeWeight>1</timeWeight>
        </arrival>
        <arrival publicID="smi:insight.mqs/Pick/20220506084515.551063.68500_Origin/20220602131402.297449.59117">
          <azimuth>109</azimuth>
          <distance>37.01401401</distance>
          <pickID>smi:insight.mqs/Pick/20220506084515.551063.68500</pickID>
          <phase>R1</phase>
          <timeWeight>1</timeWeight>
        </arrival>
        <arrival publicID="smi:insight.mqs/Pick/20220506084515.550985.68499_Origin/20220602131402.297449.59117">
          <azimuth>109</azimuth>
          <distance>37.01401401</distance>
          <pickID>smi:insight.mqs/Pick/20220506084515.550985.68499</pickID>
          <phase>R1</phase>
          <timeWeight>1</timeWeight>
        </arrival>
        <arrival publicID="smi:insight.mqs/Pick/20220506084515.550503.68497_Origin/20220602131402.297449.59117">
          <azimuth>109</azimuth>
          <distance>37.01401401</distance>
          <pickID>smi:insight.mqs/Pick/20220506084515.550503.68497</pickID>
          <phase>R1</phase>
          <timeWeight>1</timeWeight>
        </arrival>
        <arrival publicID="smi:insight.mqs/Pick/20220506084515.551151.68501_Origin/20220602131402.297449.59117">
          <azimuth>109</azimuth>
          <distance>37.01401401</distance>
          <pickID>smi:insight.mqs/Pick/20220506084515.551151.68501</pickID>
          <phase>R1</phase>
          <timeWeight>1</timeWeight>
        </arrival>
        <arrival publicID="smi:insight.mqs/Pick/20220506084515.550889.68498_Origin/20220602131402.297449.59117">
          <azimuth>109</azimuth>
          <distance>37.01401401</distance>
          <pickID>smi:insight.mqs/Pick/20220506084515.550889.68498</pickID>
          <phase>R1</phase>
          <timeWeight>1</timeWeight>
        </arrival>
        <arrival publicID="smi:insight.mqs/Pick/20220506085325.251985.68513_Origin/20220602131402.297449.59117">
          <azimuth>109</azimuth>
          <distance>37.01401401</distance>
          <pickID>smi:insight.mqs/Pick/20220506085325.251985.68513</pickID>
          <phase>G1</phase>
          <timeWeight>1</timeWeight>
        </arrival>
        <arrival publicID="smi:insight.mqs/Pick/20220506085325.252151.68516_Origin/20220602131402.297449.59117">
          <azimuth>109</azimuth>
          <distance>37.01401401</distance>
          <pickID>smi:insight.mqs/Pick/20220506085325.252151.68516</pickID>
          <phase>G1</phase>
          <timeWeight>1</timeWeight>
        </arrival>
        <arrival publicID="smi:insight.mqs/Pick/20220506085325.252257.68518_Origin/20220602131402.297449.59117">
          <azimuth>109</azimuth>
          <distance>37.01401401</distance>
          <pickID>smi:insight.mqs/Pick/20220506085325.252257.68518</pickID>
          <phase>G1</phase>
          <timeWeight>1</timeWeight>
        </arrival>
        <arrival publicID="smi:insight.mqs/Pick/20220506085325.2522.68517_Origin/20220602131402.297449.59117">
          <azimuth>109</azimuth>
          <distance>37.01401401</distance>
          <pickID>smi:insight.mqs/Pick/20220506085325.2522.68517</pickID>
          <phase>G1</phase>
          <timeWeight>1</timeWeight>
        </arrival>
        <arrival publicID="smi:insight.mqs/Pick/20220506085325.251853.68511_Origin/20220602131402.297449.59117">
          <azimuth>109</azimuth>
          <distance>37.01401401</distance>
          <pickID>smi:insight.mqs/Pick/20220506085325.251853.68511</pickID>
          <phase>G1</phase>
          <timeWeight>1</timeWeight>
        </arrival>
        <arrival publicID="smi:insight.mqs/Pick/20220506085325.251918.68512_Origin/20220602131402.297449.59117">
          <azimuth>109</azimuth>
          <distance>37.01401401</distance>
          <pickID>smi:insight.mqs/Pick/20220506085325.251918.68512</pickID>
          <phase>G1</phase>
          <timeWeight>1</timeWeight>
        </arrival>
        <arrival publicID="smi:insight.mqs/Pick/20220506085325.252039.68514_Origin/20220602131402.297449.59117">
          <azimuth>109</azimuth>
          <distance>37.01401401</distance>
          <pickID>smi:insight.mqs/Pick/20220506085325.252039.68514</pickID>
          <phase>G1</phase>
          <timeWeight>1</timeWeight>
        </arrival>
        <arrival publicID="smi:insight.mqs/Pick/20220506085325.252098.68515_Origin/20220602131402.297449.59117">
          <azimuth>109</azimuth>
          <distance>37.01401401</distance>
          <pickID>smi:insight.mqs/Pick/20220506085325.252098.68515</pickID>
          <phase>G1</phase>
          <timeWeight>1</timeWeight>
        </arrival>
        <arrival publicID="smi:insight.mqs/Pick/20220506085325.251589.68510_Origin/20220602131402.297449.59117">
          <azimuth>109</azimuth>
          <distance>37.01401401</distance>
          <pickID>smi:insight.mqs/Pick/20220506085325.251589.68510</pickID>
          <phase>G1</phase>
          <timeWeight>1</timeWeight>
        </arrival>
        <arrival publicID="smi:insight.mqs/Pick/20220506085804.564448.68531_Origin/20220602131402.297449.59117">
          <azimuth>109</azimuth>
          <distance>37.01401401</distance>
          <pickID>smi:insight.mqs/Pick/20220506085804.564448.68531</pickID>
          <phase>R1_1</phase>
          <timeWeight>1</timeWeight>
        </arrival>
        <arrival publicID="smi:insight.mqs/Pick/20220506085804.564487.68532_Origin/20220602131402.297449.59117">
          <azimuth>109</azimuth>
          <distance>37.01401401</distance>
          <pickID>smi:insight.mqs/Pick/20220506085804.564487.68532</pickID>
          <phase>R1_1</phase>
          <timeWeight>1</timeWeight>
        </arrival>
        <arrival publicID="smi:insight.mqs/Pick/20220506085804.564572.68534_Origin/20220602131402.297449.59117">
          <azimuth>109</azimuth>
          <distance>37.01401401</distance>
          <pickID>smi:insight.mqs/Pick/20220506085804.564572.68534</pickID>
          <phase>R1_1</phase>
          <timeWeight>1</timeWeight>
        </arrival>
        <arrival publicID="smi:insight.mqs/Pick/20220506085804.564396.68530_Origin/20220602131402.297449.59117">
          <azimuth>109</azimuth>
          <distance>37.01401401</distance>
          <pickID>smi:insight.mqs/Pick/20220506085804.564396.68530</pickID>
          <phase>R1_1</phase>
          <timeWeight>1</timeWeight>
        </arrival>
        <arrival publicID="smi:insight.mqs/Pick/20220506085804.564218.68529_Origin/20220602131402.297449.59117">
          <azimuth>109</azimuth>
          <distance>37.01401401</distance>
          <pickID>smi:insight.mqs/Pick/20220506085804.564218.68529</pickID>
          <phase>R1_1</phase>
          <timeWeight>1</timeWeight>
        </arrival>
        <arrival publicID="smi:insight.mqs/Pick/20220506085804.564607.68535_Origin/20220602131402.297449.59117">
          <azimuth>109</azimuth>
          <distance>37.01401401</distance>
          <pickID>smi:insight.mqs/Pick/20220506085804.564607.68535</pickID>
          <phase>R1_1</phase>
          <timeWeight>1</timeWeight>
        </arrival>
        <arrival publicID="smi:insight.mqs/Pick/20220506085804.564521.68533_Origin/20220602131402.297449.59117">
          <azimuth>109</azimuth>
          <distance>37.01401401</distance>
          <pickID>smi:insight.mqs/Pick/20220506085804.564521.68533</pickID>
          <phase>R1_1</phase>
          <timeWeight>1</timeWeight>
        </arrival>
        <arrival publicID="smi:insight.mqs/Pick/20220512093448.562277.43208_Origin/20220602131402.297449.59117">
          <azimuth>109</azimuth>
          <distance>37.01401401</distance>
          <pickID>smi:insight.mqs/Pick/20220512093448.562277.43208</pickID>
          <phase>R1_1</phase>
          <timeWeight>1</timeWeight>
        </arrival>
        <arrival publicID="smi:insight.mqs/Pick/20220512093448.56279.43209_Origin/20220602131402.297449.59117">
          <azimuth>109</azimuth>
          <distance>37.01401401</distance>
          <pickID>smi:insight.mqs/Pick/20220512093448.56279.43209</pickID>
          <phase>R1_1</phase>
          <timeWeight>1</timeWeight>
        </arrival>
        <arrival publicID="smi:insight.mqs/Pick/20220512094820.022656.43287_Origin/20220602131402.297449.59117">
          <azimuth>109</azimuth>
          <distance>37.01401401</distance>
          <pickID>smi:insight.mqs/Pick/20220512094820.022656.43287</pickID>
          <phase>R3</phase>
          <timeWeight>1</timeWeight>
        </arrival>
        <arrival publicID="smi:insight.mqs/Pick/20220512094820.022592.43285_Origin/20220602131402.297449.59117">
          <azimuth>109</azimuth>
          <distance>37.01401401</distance>
          <pickID>smi:insight.mqs/Pick/20220512094820.022592.43285</pickID>
          <phase>R2</phase>
          <timeWeight>1</timeWeight>
        </arrival>
        <arrival publicID="smi:insight.mqs/Pick/20220512094820.022494.43283_Origin/20220602131402.297449.59117">
          <azimuth>109</azimuth>
          <distance>37.01401401</distance>
          <pickID>smi:insight.mqs/Pick/20220512094820.022494.43283</pickID>
          <phase>R1</phase>
          <timeWeight>1</timeWeight>
        </arrival>
        <arrival publicID="smi:insight.mqs/Pick/20220512094820.022431.43281_Origin/20220602131402.297449.59117">
          <azimuth>109</azimuth>
          <distance>37.01401401</distance>
          <pickID>smi:insight.mqs/Pick/20220512094820.022431.43281</pickID>
          <phase>R3</phase>
          <timeWeight>1</timeWeight>
        </arrival>
        <arrival publicID="smi:insight.mqs/Pick/20220512094820.022347.43279_Origin/20220602131402.297449.59117">
          <azimuth>109</azimuth>
          <distance>37.01401401</distance>
          <pickID>smi:insight.mqs/Pick/20220512094820.022347.43279</pickID>
          <phase>R2</phase>
          <timeWeight>1</timeWeight>
        </arrival>
        <arrival publicID="smi:insight.mqs/Pick/20220512095337.053298.43355_Origin/20220602131402.297449.59117">
          <azimuth>109</azimuth>
          <distance>37.01401401</distance>
          <pickID>smi:insight.mqs/Pick/20220512095337.053298.43355</pickID>
          <phase>x4</phase>
          <timeWeight>1</timeWeight>
        </arrival>
        <arrival publicID="smi:insight.mqs/Pick/20220512095337.053498.43356_Origin/20220602131402.297449.59117">
          <azimuth>109</azimuth>
          <distance>37.01401401</distance>
          <pickID>smi:insight.mqs/Pick/20220512095337.053498.43356</pickID>
          <phase>x5</phase>
          <timeWeight>1</timeWeight>
        </arrival>
        <time>
          <value>2022-05-04T23:23:07.856945Z</value>
        </time>
        <longitude>
          <value>170.6734796</value>
        </longitude>
        <latitude>
          <value>-7.626150397</value>
        </latitude>
        <evaluationMode>manual</evaluationMode>
        <creationInfo>
          <agencyID>mqs</agencyID>
          <author>sc</author>
          <creationTime>2022-06-02T13:14:02.297555Z</creationTime>
        </creationInfo>
        <evaluationStatus>reviewed</evaluationStatus>
        <quality>
          <depthPhaseCount>0</depthPhaseCount>
        </quality>
        <mars:locationQuality>http://quakeml.org/vocab/marsquake/1.0/MarsLocationQualityType#A</mars:locationQuality>
      </origin>
